{
  "norad_id": 63328,
  "name": "STARLINK-33699",
  "history": [
    {
      "epoch": "2026-03-28T21:22:16.764384Z",
      "apogee_km": 484.17363065818245,
      "perigee_km": 481.919045813238,
      "latitude_deg": 5.721349684338782e-05,
      "longitude_deg": 127.77568442843686,
      "height_km": 482.9799412759228,
      "semi_major_axis_km": 6861.18333823571,
      "eccentricity": 0.0001643,
      "inclination_deg": 42.9989,
      "raan_deg": 274.6499,
      "arg_perigee_deg": 262.0011,
      "mean_anomaly_deg": 98.0655,
      "mean_motion_rev_day": 15.27580921
    }
  ]
}